{"type":"FeatureCollection","features":[
{"geometry":{"coordinates":[-116.999991,32.000009],"type":"Point"},"id":"7811bc63-f18b-54f6-990f-fc9083030765","properties":{"district":"north","elevation":-1.125,"fid":"7811bc63-f18b-54f6-990f-fc9083030765","name":"Alpha","object_id":1,"observed_at":"2026-01-01T00:00:00Z","population":0},"type":"Feature"},
{"geometry":{"coordinates":[-116.999891,32.000009],"type":"Point"},"id":"7811bc63-f18b-54f6-990f-fc9083030765","properties":{"district":"south","elevation":0.0,"fid":"7811bc63-f18b-54f6-990f-fc9083030765","name":null,"object_id":2,"observed_at":"2026-01-01T01:00:00+01:00","population":10},"type":"Feature"}
]}
