{"type":"FeatureCollection","features":[
{"geometry":{"coordinates":[-116.999991,32.000009],"type":"Point"},"id":"7811bc63-f18b-54f6-990f-fc9083030765","properties":{"district":"north","elevation":-1.125,"fid":"7811bc63-f18b-54f6-990f-fc9083030765","name":"Alpha","object_id":1,"observed_at":"2026-01-01T00:00:00Z","population":0},"type":"Feature"},
{"geometry":{"coordinates":[-116.999891,32.000009],"type":"Point"},"id":"8ebaa063-9c5f-5224-94f1-7cfde41c2cee","properties":{"district":"south","elevation":0.0,"fid":"8ebaa063-9c5f-5224-94f1-7cfde41c2cee","name":null,"object_id":2,"observed_at":"2026-01-01T01:00:00+01:00","population":10},"type":"Feature"},
{"geometry":{"coordinates":[-116.999791,32.000009],"type":"Point"},"id":"15869419-e485-5e3d-84e5-cf206075b374","properties":{"district":"east","elevation":123.456,"fid":"15869419-e485-5e3d-84e5-cf206075b374","name":"","object_id":3,"observed_at":"2025-12-31T16:00:00-08:00","population":20},"type":"Feature"},
{"geometry":{"coordinates":[-116.999691,32.000009],"type":"Point"},"id":"f458cd32-05e7-5db5-b469-b166e371d1ce","properties":{"district":"west","elevation":2.25,"fid":"f458cd32-05e7-5db5-b469-b166e371d1ce","name":"München","object_id":4,"observed_at":"2026-01-01T00:00:00Z","population":30},"type":"Feature"},
{"geometry":{"coordinates":[-116.999591,32.000009],"type":"Point"},"id":"199b9952-b9d3-502c-8ec2-3ee1e6f6754b","properties":{"district":"north","elevation":-1.125,"fid":"199b9952-b9d3-502c-8ec2-3ee1e6f6754b","name":"東京","object_id":5,"observed_at":"2026-01-01T01:00:00+01:00","population":40},"type":"Feature"},
{"geometry":{"coordinates":[-116.999491,32.000009],"type":"Point"},"id":"4ac5ef6e-439b-5585-a10b-eaea5f0a1608","properties":{"district":"south","elevation":0.0,"fid":"4ac5ef6e-439b-5585-a10b-eaea5f0a1608","name":"O'Neil","object_id":6,"observed_at":"2025-12-31T16:00:00-08:00","population":50},"type":"Feature"},
{"geometry":{"coordinates":[-116.999391,32.000009],"type":"Point"},"id":"bddcaf24-470d-5d2d-bb01-433cc20324d6","properties":{"district":"east","elevation":123.456,"fid":"bddcaf24-470d-5d2d-bb01-433cc20324d6","name":"line\nbreak","object_id":7,"observed_at":"2026-01-01T00:00:00Z","population":60},"type":"Feature"},
{"geometry":{"coordinates":[-116.999291,32.000009],"type":"Point"},"id":"36f981ce-6162-5363-945d-9ee90c41410b","properties":{"district":"west","elevation":2.25,"fid":"36f981ce-6162-5363-945d-9ee90c41410b","name":"naïve","object_id":8,"observed_at":"2026-01-01T01:00:00+01:00","population":70},"type":"Feature"},
{"geometry":{"coordinates":[-116.999191,32.000009],"type":"Point"},"id":"bca476fe-1897-59f0-8a84-ad761ccf9f31","properties":{"district":"north","elevation":-1.125,"fid":"bca476fe-1897-59f0-8a84-ad761ccf9f31","name":"zero","object_id":9,"observed_at":"2025-12-31T16:00:00-08:00","population":80},"type":"Feature"},
{"geometry":{"coordinates":[-116.999091,32.000009],"type":"Point"},"id":"f517e20b-e54f-5498-a4c4-ad64d38488b8","properties":{"district":"south","elevation":0.0,"fid":"f517e20b-e54f-5498-a4c4-ad64d38488b8","name":null,"object_id":10,"observed_at":"2026-01-01T00:00:00Z","population":90},"type":"Feature"},
{"geometry":{"coordinates":[-116.998991,32.000009],"type":"Point"},"id":"3113ec45-1c66-5faa-ba47-e2f55f024671","properties":{"district":"east","elevation":123.456,"fid":"3113ec45-1c66-5faa-ba47-e2f55f024671","name":"","object_id":11,"observed_at":"2026-01-01T01:00:00+01:00","population":100},"type":"Feature"},
{"geometry":{"coordinates":[-116.998891,32.000009],"type":"Point"},"id":"f1e7d2e9-2113-5afa-a611-8195a21e17f7","properties":{"district":"west","elevation":2.25,"fid":"f1e7d2e9-2113-5afa-a611-8195a21e17f7","name":"Ωmega","object_id":12,"observed_at":"2025-12-31T16:00:00-08:00","population":110},"type":"Feature"}
]}
