{"type":"FeatureCollection","features":[
{"geometry":{"coordinates":[[[-117.002,31.999],[-116.99,31.999],[-116.99,32.01],[-117.002,32.01],[-117.002,31.999]],[[-116.999,32.004],[-116.999,32.006],[-116.997,32.006],[-116.997,32.004],[-116.999,32.004]]],"type":"Polygon"},"id":"bdb3fcc6-00fa-524b-a303-a6248ae2aeff","properties":{"class":"residential","fid":"bdb3fcc6-00fa-524b-a303-a6248ae2aeff","parcel_key":"P-1"},"type":"Feature"},
{"geometry":{"coordinates":[[[-116.978,32.005],[-116.97803843,32.00539018],[-116.97815224,32.00576537],[-116.97833706,32.00611114],[-116.97858579,32.00641421],[-116.97888886,32.00666294],[-116.97923463,32.00684776],[-116.97960982,32.00696157],[-116.98,32.007],[-116.98039018,32.00696157],[-116.98076537,32.00684776],[-116.98111114,32.00666294],[-116.98141421,32.00641421],[-116.98166294,32.00611114],[-116.98184776,32.00576537],[-116.98196157,32.00539018],[-116.982,32.005],[-116.98196157,32.00460982],[-116.98184776,32.00423463],[-116.98166294,32.00388886],[-116.98141421,32.00358579],[-116.98111114,32.00333706],[-116.98076537,32.00315224],[-116.98039018,32.00303843],[-116.98,32.003],[-116.97960982,32.00303843],[-116.97923463,32.00315224],[-116.97888886,32.00333706],[-116.97858579,32.00358579],[-116.97833706,32.00388886],[-116.97815224,32.00423463],[-116.97803843,32.00460982],[-116.978,32.005]]],"type":"Polygon"},"id":"35d7ab15-2239-5109-a355-eca38678428c","properties":{"class":"park","fid":"35d7ab15-2239-5109-a355-eca38678428c","parcel_key":"P-2"},"type":"Feature"}
]}
